{"type": "FeatureCollection", "features": [ {"type": "Feature", "properties": {"norad_id": 39778, "name": "IRIDIUM 33 DEB", "group": "iridium-33-debris", "lat": 18.18262318222006, "lon": -141.22086794495942, "alt_km": 716.2129814454456, "timestamp": "2025-12-20T05:41:50.416824+00:00", "meta": {"OBJECT_NAME": "IRIDIUM 33 DEB", "OBJECT_ID": "1997-051AAK", "EPOCH": "2025-12-18T10:01:19.260192", "MEAN_MOTION": 14.5430124, "ECCENTRICITY": 0.00073585, "INCLINATION": 86.3776, "RA_OF_ASC_NODE": 40.7612, "ARG_OF_PERICENTER": 24.7507, "MEAN_ANOMALY": 335.4052, "EPHEMERIS_TYPE": 0, "CLASSIFICATION_TYPE": "U", "NORAD_CAT_ID": 39778, "ELEMENT_SET_NO": 999, "REV_AT_EPOCH": 60775, "BSTAR": 0.00067163185, "MEAN_MOTION_DOT": 2.869e-05, "MEAN_MOTION_DDOT": 0}, "tle": {"line1": "1 39778U 97051AAK 25352.41758403  .00002869  00000+0  67163-3 0  9995", "line2": "2 39778  86.3776  40.7612 0007358  24.7507 335.4052 14.54301240607752"}}, "geometry": {"type": "Point", "coordinates": [-141.22086794495942, 18.18262318222006]}}, {"type": "Feature", "properties": {"norad_id": 39781, "name": "IRIDIUM 33 DEB", "group": "iridium-33-debris", "lat": 85.82472179863399, "lon": 14.507361986002985, "alt_km": 931.489205126767, "timestamp": "2025-12-20T05:41:50.416835+00:00", "meta": {"OBJECT_NAME": "IRIDIUM 33 DEB", "OBJECT_ID": "1997-051AAN", "EPOCH": "2025-12-15T00:15:44.903232", "MEAN_MOTION": 14.2070789, "ECCENTRICITY": 0.01756389, "INCLINATION": 86.371, "RA_OF_ASC_NODE": 257.043, "ARG_OF_PERICENTER": 266.0338, "MEAN_ANOMALY": 111.7662, "EPHEMERIS_TYPE": 0, "CLASSIFICATION_TYPE": "U", "NORAD_CAT_ID": 39781, "ELEMENT_SET_NO": 999, "REV_AT_EPOCH": 8139, "BSTAR": 0.0031777078, "MEAN_MOTION_DOT": 8.021e-05, "MEAN_MOTION_DDOT": 0}, "tle": {"line1": "1 39781U 97051AAN 25349.01093638  .00008021  00000+0  31777-2 0  9990", "line2": "2 39781  86.3710 257.0430 0175638 266.0338 111.7662 14.20707890 81397"}}, "geometry": {"type": "Point", "coordinates": [14.507361986002985, 85.82472179863399]}}, {"type": "Feature", "properties": {"norad_id": 40996, "name": "IRIDIUM 33 DEB", "group": "iridium-33-debris", "lat": 35.8197451166851, "lon": 175.2658755879223, "alt_km": 576.544863961476, "timestamp": "2025-12-20T05:41:50.416845+00:00", "meta": {"OBJECT_NAME": "IRIDIUM 33 DEB", "OBJECT_ID": "1997-051ABJ", "EPOCH": "2025-12-19T00:18:17.890848", "MEAN_MOTION": 14.96620971, "ECCENTRICITY": 0.00114718, "INCLINATION": 86.3508, "RA_OF_ASC_NODE": 358.4785, "ARG_OF_PERICENTER": 46.0605, "MEAN_ANOMALY": 343.7105, "EPHEMERIS_TYPE": 0, "CLASSIFICATION_TYPE": "U", "NORAD_CAT_ID": 40996, "ELEMENT_SET_NO": 999, "REV_AT_EPOCH": 62582, "BSTAR": 0.0021050571, "MEAN_MOTION_DOT": 0.00024091, "MEAN_MOTION_DDOT": 0}, "tle": {"line1": "1 40996U 97051ABJ 25353.01270707  .00024091  00000+0  21051-2 0  9998", "line2": "2 40996  86.3508 358.4785 0011471  46.0605 343.7105 14.96620971625826"}}, "geometry": {"type": "Point", "coordinates": [175.2658755879223, 35.8197451166851]}}, {"type": "Feature", "properties": {"norad_id": 40998, "name": "IRIDIUM 33 DEB", "group": "iridium-33-debris", "lat": -65.99550289847163, "lon": 42.28536813608192, "alt_km": 753.2084883259049, "timestamp": "2025-12-20T05:41:50.416855+00:00", "meta": {"OBJECT_NAME": "IRIDIUM 33 DEB", "OBJECT_ID": "1997-051ABL", "EPOCH": "2025-12-19T22:16:12.053856", "MEAN_MOTION": 14.4511921, "ECCENTRICITY": 0.00091802, "INCLINATION": 86.3822, "RA_OF_ASC_NODE": 50.5853, "ARG_OF_PERICENTER": 65.4089, "MEAN_ANOMALY": 59.4922, "EPHEMERIS_TYPE": 0, "CLASSIFICATION_TYPE": "U", "NORAD_CAT_ID": 40998, "ELEMENT_SET_NO": 999, "REV_AT_EPOCH": 6785, "BSTAR": 0.00031232514, "MEAN_MOTION_DOT": 1.112e-05, "MEAN_MOTION_DDOT": 0}, "tle": {"line1": "1 40998U 97051ABL 25353.92791729  .00001112  00000+0  31233-3 0  9995", "line2": "2 40998  86.3822  50.5853 0009180  65.4089  59.4922 14.45119210 67852"}}, "geometry": {"type": "Point", "coordinates": [42.28536813608192, -65.99550289847163]}}, {"type": "Feature", "properties": {"norad_id": 46435, "name": "IRIDIUM 33 DEB", "group": "iridium-33-debris", "lat": -0.4011046144111783, "lon": 10.749498337815146, "alt_km": 736.0783190062693, "timestamp": "2025-12-20T05:41:50.416866+00:00", "meta": {"OBJECT_NAME": "IRIDIUM 33 DEB", "OBJECT_ID": "1997-051ABN", "EPOCH": "2025-12-13T20:22:29.882208", "MEAN_MOTION": 14.32399442, "ECCENTRICITY": 0.0208315, "INCLINATION": 86.2839, "RA_OF_ASC_NODE": 193.4722, "ARG_OF_PERICENTER": 272.7642, "MEAN_ANOMALY": 103.0816, "EPHEMERIS_TYPE": 0, "CLASSIFICATION_TYPE": "U", "NORAD_CAT_ID": 46435, "ELEMENT_SET_NO": 999, "REV_AT_EPOCH": 7932, "BSTAR": 0.009141333, "MEAN_MOTION_DOT": 0.00031559, "MEAN_MOTION_DDOT": 0}, "tle": {"line1": "1 46435U 97051ABN 25347.84895697  .00031559  00000+0  91413-2 0  9993", "line2": "2 46435  86.2839 193.4722 0208315 272.7642 103.0816 14.32399442 79328"}}, "geometry": {"type": "Point", "coordinates": [10.749498337815146, -0.4011046144111783]}}, {"type": "Feature", "properties": {"norad_id": 46734, "name": "IRIDIUM 33 DEB", "group": "iridium-33-debris", "lat": -84.73410321797506, "lon": -135.267805384155, "alt_km": 740.1085617882427, "timestamp": "2025-12-20T05:41:50.416877+00:00", "meta": {"OBJECT_NAME": "IRIDIUM 33 DEB", "OBJECT_ID": "1997-051ABR", "EPOCH": "2025-12-16T07:16:35.707584", "MEAN_MOTION": 14.41911222, "ECCENTRICITY": 0.00381217, "INCLINATION": 86.2633, "RA_OF_ASC_NODE": 1.2995, "ARG_OF_PERICENTER": 323.6514, "MEAN_ANOMALY": 53.8246, "EPHEMERIS_TYPE": 0, "CLASSIFICATION_TYPE": "U", "NORAD_CAT_ID": 46734, "ELEMENT_SET_NO": 999, "REV_AT_EPOCH": 63062, "BSTAR": 0.00075238, "MEAN_MOTION_DOT": 2.503e-05, "MEAN_MOTION_DDOT": 0}, "tle": {"line1": "1 46734U 97051ABR 25350.30319106  .00002503  00000+0  75238-3 0  9991", "line2": "2 46734  86.2633   1.2995 0038121 323.6514  53.8246 14.41911222630621"}}, "geometry": {"type": "Point", "coordinates": [-135.267805384155, -84.73410321797506]}}, {"type": "Feature", "properties": {"norad_id": 46965, "name": "IRIDIUM 33 DEB", "group": "iridium-33-debris", "lat": -0.22310232911221828, "lon": 157.38604061750186, "alt_km": 702.4761372922876, "timestamp": "2025-12-20T05:41:50.416887+00:00", "meta": {"OBJECT_NAME": "IRIDIUM 33 DEB", "OBJECT_ID": "1997-051ABX", "EPOCH": "2025-12-19T17:55:53.080032", "MEAN_MOTION": 14.60345703, "ECCENTRICITY": 0.00174181, "INCLINATION": 86.3352, "RA_OF_ASC_NODE": 337.5891, "ARG_OF_PERICENTER": 308.2563, "MEAN_ANOMALY": 176.3238, "EPHEMERIS_TYPE": 0, "CLASSIFICATION_TYPE": "U", "NORAD_CAT_ID": 46965, "ELEMENT_SET_NO": 999, "REV_AT_EPOCH": 62370, "BSTAR": 0.00056519874, "MEAN_MOTION_DOT": 2.758e-05, "MEAN_MOTION_DDOT": 0}, "tle": {"line1": "1 46965U 97051ABX 25353.74714213  .00002758  00000+0  56520-3 0  9991", "line2": "2 46965  86.3352 337.5891 0017418 308.2563 176.3238 14.60345703623704"}}, "geometry": {"type": "Point", "coordinates": [157.38604061750186, -0.22310232911221828]}}, {"type": "Feature", "properties": {"norad_id": 46971, "name": "IRIDIUM 33 DEB", "group": "iridium-33-debris", "lat": -22.536393870925234, "lon": 151.11220075096756, "alt_km": 576.6874868556106, "timestamp": "2025-12-20T05:41:50.416898+00:00", "meta": {"OBJECT_NAME": "IRIDIUM 33 DEB", "OBJECT_ID": "1997-051ACD", "EPOCH": "2025-12-18T04:46:20.926848", "MEAN_MOTION": 14.98336604, "ECCENTRICITY": 0.00026432, "INCLINATION": 86.3383, "RA_OF_ASC_NODE": 330.5483, "ARG_OF_PERICENTER": 282.6501, "MEAN_ANOMALY": 90.914, "EPHEMERIS_TYPE": 0, "CLASSIFICATION_TYPE": "U", "NORAD_CAT_ID": 46971, "ELEMENT_SET_NO": 999, "REV_AT_EPOCH": 64312, "BSTAR": 0.0022892837, "MEAN_MOTION_DOT": 0.00027356, "MEAN_MOTION_DDOT": 0}, "tle": {"line1": "1 46971U 97051ACD 25352.19885332  .00027356  00000+0  22893-2 0  9993", "line2": "2 46971  86.3383 330.5483 0002643 282.6501  90.9140 14.98336604643128"}}, "geometry": {"type": "Point", "coordinates": [151.11220075096756, -22.536393870925234]}}, {"type": "Feature", "properties": {"norad_id": 46974, "name": "IRIDIUM 33 DEB", "group": "iridium-33-debris", "lat": -9.442948949611962, "lon": -77.38153899329647, "alt_km": 686.8330727839739, "timestamp": "2025-12-20T05:41:50.416909+00:00", "meta": {"OBJECT_NAME": "IRIDIUM 33 DEB", "OBJECT_ID": "1997-051ACG", "EPOCH": "2025-12-14T14:09:41.074272", "MEAN_MOTION": 14.44439168, "ECCENTRICITY": 0.00956816, "INCLINATION": 86.2983, "RA_OF_ASC_NODE": 104.4675, "ARG_OF_PERICENTER": 181.0289, "MEAN_ANOMALY": 179.0732, "EPHEMERIS_TYPE": 0, "CLASSIFICATION_TYPE": "U", "NORAD_CAT_ID": 46974, "ELEMENT_SET_NO": 999, "REV_AT_EPOCH": 57535, "BSTAR": 0.0034715296, "MEAN_MOTION_DOT": 0.00012692, "MEAN_MOTION_DDOT": 0}, "tle": {"line1": "1 46974U 97051ACG 25348.59005873  .00012692  00000+0  34715-2 0  9992", "line2": "2 46974  86.2983 104.4675 0095681 181.0289 179.0732 14.44439168575351"}}, "geometry": {"type": "Point", "coordinates": [-77.38153899329647, -9.442948949611962]}}, {"type": "Feature", "properties": {"norad_id": 46979, "name": "IRIDIUM 33 DEB", "group": "iridium-33-debris", "lat": -20.960657602494813, "lon": 43.65983587850967, "alt_km": 618.7699335800189, "timestamp": "2025-12-20T05:41:50.416920+00:00", "meta": {"OBJECT_NAME": "IRIDIUM 33 DEB", "OBJECT_ID": "1997-051ACM", "EPOCH": "2025-12-17T21:22:35.876928", "MEAN_MOTION": 14.8988445, "ECCENTRICITY": 0.00279352, "INCLINATION": 86.3335, "RA_OF_ASC_NODE": 46.1582, "ARG_OF_PERICENTER": 204.5568, "MEAN_ANOMALY": 155.433, "EPHEMERIS_TYPE": 0, "CLASSIFICATION_TYPE": "U", "NORAD_CAT_ID": 46979, "ELEMENT_SET_NO": 999, "REV_AT_EPOCH": 35505, "BSTAR": 0.0030814972, "MEAN_MOTION_DOT": 0.00029954, "MEAN_MOTION_DDOT": 0}, "tle": {"line1": "1 46979U 97051ACM 25351.89069302  .00029954  00000+0  30815-2 0  9997", "line2": "2 46979  86.3335  46.1582 0027935 204.5568 155.4330 14.89884450355057"}}, "geometry": {"type": "Point", "coordinates": [43.65983587850967, -20.960657602494813]}}]}